[
    {
        "Altitude(m)": 622205.8317780817,
        "Argument of Periapsis(deg)": 0.0,
        "Eccentricity": 0.0,
        "Inclination(deg)": 60.0,
        "Latitude(deg)": -52.16233684848944,
        "Longitude(deg)": 72.70046533155946,
        "Mean Anomaly(deg)": -114.5455,
        "RAAN(deg)": 305.0,
        "Satellite Name": "Test1 1357",
        "Satellite Number": 1357,
        "Semi-Major Axis(m)": 6980739.136638005,
        "Time(s)": 0
    },
    {
        "Altitude(m)": 622344.7381662745,
        "Argument of Periapsis(deg)": 0.00010418945913296404,
        "Eccentricity": 0.0,
        "Inclination(deg)": 60.0,
        "Latitude(deg)": -52.51991570532169,
        "Longitude(deg)": 73.48167686635288,
        "Mean Anomaly(deg)": -113.92539385453817,
        "RAAN(deg)": 304.99957995086027,
        "Satellite Name": "Test1 1357",
        "Satellite Number": 1357,
        "Semi-Major Axis(m)": 6980739.136638005,
        "Time(s)": 10
    },
    {
        "Altitude(m)": 622480.8009099492,
        "Argument of Periapsis(deg)": 0.0002083789182659281,
        "Eccentricity": 0.0,
        "Inclination(deg)": 60.0,
        "Latitude(deg)": -52.8716579579588,
        "Longitude(deg)": 74.2762204611386,
        "Mean Anomaly(deg)": -113.30528770907632,
        "RAAN(deg)": 304.9991599017205,
        "Satellite Name": "Test1 1357",
        "Satellite Number": 1357,
        "Semi-Major Axis(m)": 6980739.136638005,
        "Time(s)": 20
    },
    {
        "Altitude(m)": 622613.9667778111,
        "Argument of Periapsis(deg)": 0.00031256837739889213,
        "Eccentricity": 0.0,
        "Inclination(deg)": 60.0,
        "Latitude(deg)": -53.21739574616827,
        "Longitude(deg)": 75.0842570811453,
        "Mean Anomaly(deg)": -112.68518156361452,
        "RAAN(deg)": 304.9987398525808,
        "Satellite Name": "Test1 1357",
        "Satellite Number": 1357,
        "Semi-Major Axis(m)": 6980739.136638005,
        "Time(s)": 30
    },
    {
        "Altitude(m)": 622744.1836487915,
        "Argument of Periapsis(deg)": 0.0004167578365318562,
        "Eccentricity": 0.0,
        "Inclination(deg)": 60.0,
        "Latitude(deg)": -53.55695780287187,
        "Longitude(deg)": 75.90593606839178,
        "Mean Anomaly(deg)": -112.06507541815265,
        "RAAN(deg)": 304.998319803441,
        "Satellite Name": "Test1 1357",
        "Satellite Number": 1357,
        "Semi-Major Axis(m)": 6980739.136638005,
        "Time(s)": 40
    },
    {
        "Altitude(m)": 622871.4005342899,
        "Argument of Periapsis(deg)": 0.0005209472956648203,
        "Eccentricity": 0.0,
        "Inclination(deg)": 60.0,
        "Latitude(deg)": -53.89016957690701,
        "Longitude(deg)": 76.74139274520346,
        "Mean Anomaly(deg)": -111.44496927269081,
        "RAAN(deg)": 304.9978997543013,
        "Satellite Name": "Test1 1357",
        "Satellite Number": 1357,
        "Semi-Major Axis(m)": 6980739.136638005,
        "Time(s)": 50
    },
    {
        "Altitude(m)": 622995.5675999287,
        "Argument of Periapsis(deg)": 0.0006251367547977843,
        "Eccentricity": 0.0,
        "Inclination(deg)": 60.0,
        "Latitude(deg)": -54.21685337977263,
        "Longitude(deg)": 77.5907474669963,
        "Mean Anomaly(deg)": -110.82486312722907,
        "RAAN(deg)": 304.99747970516154,
        "Satellite Name": "Test1 1357",
        "Satellite Number": 1357,
        "Semi-Major Axis(m)": 6980739.136638005,
        "Time(s)": 60
    },
    {
        "Altitude(m)": 623116.6361867808,
        "Argument of Periapsis(deg)": 0.0007293262139307483,
        "Eccentricity": 0.0,
        "Inclination(deg)": 60.0,
        "Latitude(deg)": -54.53682855797613,
        "Longitude(deg)": 78.45410461581754,
        "Mean Anomaly(deg)": -110.20475698176716,
        "RAAN(deg)": 304.9970596560218,
        "Satellite Name": "Test1 1357",
        "Satellite Number": 1357,
        "Semi-Major Axis(m)": 6980739.136638005,
        "Time(s)": 70
    },
    {
        "Altitude(m)": 623234.5588320853,
        "Argument of Periapsis(deg)": 0.0008335156730637124,
        "Eccentricity": 0.0,
        "Inclination(deg)": 60.0,
        "Latitude(deg)": -54.84991169255504,
        "Longitude(deg)": 79.33155002741896,
        "Mean Anomaly(deg)": -109.58465083630539,
        "RAAN(deg)": 304.99663960688207,
        "Satellite Name": "Test1 1357",
        "Satellite Number": 1357,
        "Semi-Major Axis(m)": 6980739.136638005,
        "Time(s)": 80
    },
    {
        "Altitude(m)": 623349.2892894686,
        "Argument of Periapsis(deg)": 0.0009377051321966765,
        "Eccentricity": 0.0,
        "Inclination(deg)": 60.0,
        "Latitude(deg)": -55.15591682727904,
        "Longitude(deg)": 80.22314988465519,
        "Mean Anomaly(deg)": -108.96454469084354,
        "RAAN(deg)": 304.99621955774234,
        "Satellite Name": "Test1 1357",
        "Satellite Number": 1357,
        "Semi-Major Axis(m)": 6980739.136638005,
        "Time(s)": 90
    },
    {
        "Altitude(m)": 623460.7825485804,
        "Argument of Periapsis(deg)": 0.0010418945913296407,
        "Eccentricity": 0.0,
        "Inclination(deg)": 60.0,
        "Latitude(deg)": -55.45465572693714,
        "Longitude(deg)": 81.1289495728881,
        "Mean Anomaly(deg)": -108.3444385453817,
        "RAAN(deg)": 304.99579950860254,
        "Satellite Name": "Test1 1357",
        "Satellite Number": 1357,
        "Semi-Major Axis(m)": 6980739.136638005,
        "Time(s)": 100
    },
    {
        "Altitude(m)": 623568.9948542627,
        "Argument of Periapsis(deg)": 0.0011460840504626045,
        "Eccentricity": 0.0,
        "Inclination(deg)": 60.0,
        "Latitude(deg)": -55.74593816698772,
        "Longitude(deg)": 82.04897099468762,
        "Mean Anomaly(deg)": -107.7243323999199,
        "RAAN(deg)": 304.99537945946287,
        "Satellite Name": "Test1 1357",
        "Satellite Number": 1357,
        "Semi-Major Axis(m)": 6980739.136638005,
        "Time(s)": 110
    },
    {
        "Altitude(m)": 623673.8837250941,
        "Argument of Periapsis(deg)": 0.0012502735095955685,
        "Eccentricity": 0.0,
        "Inclination(deg)": 60.0,
        "Latitude(deg)": -56.02957225567256,
        "Longitude(deg)": 82.98321138139578,
        "Mean Anomaly(deg)": -107.10422625445803,
        "RAAN(deg)": 304.9949594103231,
        "Satellite Name": "Test1 1357",
        "Satellite Number": 1357,
        "Semi-Major Axis(m)": 6980739.136638005,
        "Time(s)": 120
    },
    {
        "Altitude(m)": 623775.4079714647,
        "Argument of Periapsis(deg)": 0.0013544629687285324,
        "Eccentricity": 0.0,
        "Inclination(deg)": 60.0,
        "Latitude(deg)": -56.30536478949167,
        "Longitude(deg)": 83.93164210224164,
        "Mean Anomaly(deg)": -106.48412010899628,
        "RAAN(deg)": 304.99453936118334,
        "Satellite Name": "Test1 1357",
        "Satellite Number": 1357,
        "Semi-Major Axis(m)": 6980739.136638005,
        "Time(s)": 130
    },
    {
        "Altitude(m)": 623873.5277130165,
        "Argument of Periapsis(deg)": 0.0014586524278614966,
        "Eccentricity": 0.0,
        "Inclination(deg)": 60.0,
        "Latitude(deg)": -56.57312164268565,
        "Longitude(deg)": 84.89420597344093,
        "Mean Anomaly(deg)": -105.86401396353445,
        "RAAN(deg)": 304.9941193120436,
        "Satellite Name": "Test1 1357",
        "Satellite Number": 1357,
        "Semi-Major Axis(m)": 6980739.136638005,
        "Time(s)": 140
    },
    {
        "Altitude(m)": 623968.204395589,
        "Argument of Periapsis(deg)": 0.0015628418869944607,
        "Eccentricity": 0.0,
        "Inclination(deg)": 60.0,
        "Latitude(deg)": -56.832648191072636,
        "Longitude(deg)": 85.87081611005448,
        "Mean Anomaly(deg)": -105.24390781807263,
        "RAAN(deg)": 304.9936992629039,
        "Satellite Name": "Test1 1357",
        "Satellite Number": 1357,
        "Semi-Major Axis(m)": 6980739.136638005,
        "Time(s)": 150
    },
    {
        "Altitude(m)": 624059.4008075285,
        "Argument of Periapsis(deg)": 0.0016670313461274247,
        "Eccentricity": 0.0,
        "Inclination(deg)": 60.0,
        "Latitude(deg)": -57.0837497702555,
        "Longitude(deg)": 86.86135482645406,
        "Mean Anomaly(deg)": -104.62380167261077,
        "RAAN(deg)": 304.99327921376414,
        "Satellite Name": "Test1 1357",
        "Satellite Number": 1357,
        "Semi-Major Axis(m)": 6980739.136638005,
        "Time(s)": 160
    },
    {
        "Altitude(m)": 624147.0810954669,
        "Argument of Periapsis(deg)": 0.0017712208052603888,
        "Eccentricity": 0.0,
        "Inclination(deg)": 60.0,
        "Latitude(deg)": -57.32623216782776,
        "Longitude(deg)": 87.86567109281528,
        "Mean Anomaly(deg)": -104.00369552714892,
        "RAAN(deg)": 304.9928591646244,
        "Satellite Name": "Test1 1357",
        "Satellite Number": 1357,
        "Semi-Major Axis(m)": 6980739.136638005,
        "Time(s)": 170
    },
    {
        "Altitude(m)": 624231.2107794868,
        "Argument of Periapsis(deg)": 0.001875410264393353,
        "Eccentricity": 0.0,
        "Inclination(deg)": 60.0,
        "Latitude(deg)": -57.559902148782825,
        "Longitude(deg)": 88.8835795950866,
        "Mean Anomaly(deg)": -103.38358938168707,
        "RAAN(deg)": 304.9924391154846,
        "Satellite Name": "Test1 1357",
        "Satellite Number": 1357,
        "Semi-Major Axis(m)": 6980739.136638005,
        "Time(s)": 180
    },
    {
        "Altitude(m)": 624311.7567677334,
        "Argument of Periapsis(deg)": 0.0019795997235263173,
        "Eccentricity": 0.0,
        "Inclination(deg)": 60.0,
        "Latitude(deg)": -57.784568012867425,
        "Longitude(deg)": 89.91485990848439,
        "Mean Anomaly(deg)": -102.76348323622527,
        "RAAN(deg)": 304.99201906634494,
        "Satellite Name": "Test1 1357",
        "Satellite Number": 1357,
        "Semi-Major Axis(m)": 6980739.136638005,
        "Time(s)": 190
    }
]